satname,norad_id,inclination_deg,eccentricity,mean_motion_rev_per_day,perigee_km,apogee_km,l1,l2
STARLINK-1206,45204,53.0386,0.00044,15.92391759,292.6554538680557,298.52833529528834,1 45204U 20012AC  25249.25002315  .00245005  33705-4  71530-3 0  9997,2 45204  53.0386  88.9448 0004400 102.0150 201.8345 15.92391759  6055
STARLINK-1208,45205,53.0392,0.0006779,15.87742777,304.07991585462605,313.1458113196768,1 45205U 20012AD  25249.25002315  .00273965  00000+0  97051-3 0  9997,2 45205  53.0392  89.7289 0006779  96.7998  85.3556 15.87742777  6047
STARLINK-1209,45206,53.0538,0.0001447,15.0639137,546.2359060079789,548.2401095352288,1 45206U 20012AE  25249.03386900 -.00000514  00000+0 -15596-4 0  9994,2 45206  53.0538 115.5730 0001447 114.6699 245.4441 15.06391370306612
STARLINK-1210,45207,53.0291,0.0009218,15.43359764,429.92039129631576,442.48330639805044,1 45207U 20012AF  25248.97869317  .00120129  00000+0  26159-2 0  9993,2 45207  53.0291  92.8717 0009218 177.6959 182.4090 15.43359764307885
STARLINK-1231,45212,53.0534,0.0003607,15.08161246,539.3228183878318,544.3148745354702,1 45212U 20012AL  25248.90986008  .00021635  00000+0  13986-2 0  9995,2 45212  53.0534 135.8918 0003607 112.0613 248.0760 15.08161246307226
STARLINK-1271,45217,53.0538,0.0001393,15.06407167,546.2248942083097,548.1542901968978,1 45217U 20012AR  25249.00990975  .00013129  00000+0  89849-3 0  9991,2 45217  53.0538 135.6788 0001393  86.5904 273.5245 15.06407167307286
STARLINK-1191,45222,53.0538,0.0001395,15.06397314,546.2537028814286,548.1858774258808,1 45222U 20012AW  25249.01912909  .00001688  00000+0  13217-3 0  9992,2 45222  53.0538 115.6376 0001395  83.6537 276.4611 15.06397314307567
STARLINK-1212,45223,53.0547,0.0001457,15.06397643,546.2097574758154,548.2278061506368,1 45223U 20012AX  25248.90494441  .00001941  00000+0  14918-3 0  9997,2 45223  53.0547 116.8041 0001457  92.3527 267.7629 15.06397643307540
STARLINK-1215,45225,53.0548,0.0001114,15.06422427,546.3713470938028,547.9142994384265,1 45225U 20012AZ  25248.92695912  .00012264  00000+0  84025-3 0  9993,2 45225  53.0548 116.0504 0001114  69.4178 290.6931 15.06422427307502
STARLINK-1217,45226,53.0463,0.0006852,15.79888741,326.1586527383861,335.3525191381559,1 45226U 20012BA  25249.25002315  .00256836  00000+0  13232-2 0  9996,2 45226  53.0463  73.9092 0006852 120.8408 211.3452 15.79888741  5973
STARLINK-1221,45227,53.0695,0.0005218,15.34651772,458.38586305532135,465.5241830906007,1 45227U 20012BB  25249.19442517  .00017629  00000+0  52729-3 0  9992,2 45227  53.0695  58.9741 0005218 136.1657 223.9759 15.34651772308312
STARLINK-1222,45228,53.0541,0.0001945,15.06413817,545.8222390888996,548.5161832050362,1 45228U 20012BC  25249.02650499  .00005465  00000+0  38536-3 0  9990,2 45228  53.0541 115.6013 0001945 104.9755 255.1449 15.06413817307453
STARLINK-1226,45229,53.0539,0.0001566,15.06388929,546.160974268767,548.3300040643735,1 45229U 20012BD  25248.92328986  .00009690  00000+0  66872-3 0  9990,2 45229  53.0539 116.0671 0001566  93.2649 266.8520 15.06388929307440
STARLINK-1227,45230,53.0533,0.0001583,15.06399271,546.1175091887753,548.310075249592,1 45230U 20012BE  25248.91960893  .00007916  00000+0  54972-3 0  9997,2 45230  53.0533 116.0853 0001583  47.9265 312.1859 15.06399271307562
STARLINK-1238,45233,53.0391,0.0006166,15.86946002,306.7264385654971,314.9752984049137,1 45233U 20012BH  25249.25002315  .00290491  00000+0  10683-2 0  9996,2 45233  53.0391  90.8936 0006166  97.3816  18.7241 15.86946002  6042
STARLINK-1246,45235,53.0545,0.0001447,15.06402446,546.2019644591383,548.2061581622829,1 45235U 20012BK  25249.06704120  .00004333  00000+0  30956-3 0  9994,2 45235  53.0545 155.4226 0001447  86.2611 273.8543 15.06402446307035
STARLINK-1247,45236,53.0412,0.0004727,15.86539844,308.82999354981075,315.15484190132884,1 45236U 20012BL  25249.25002315  .00311052  00000+0  11645-2 0  9995,2 45236  53.0412  70.7649 0004727 113.5778  40.5834 15.86539844  5835
STARLINK-1270,45237,53.0538,0.0001124,15.06379373,546.4963611600424,548.0531937276119,1 45237U 20012BM  25248.93801940  .00010563  00000+0  72732-3 0  9999,2 45237  53.0538 116.0009 0001124  89.5083 270.6035 15.06379373307552
STARLINK-1279,45360,53.0543,0.0001395,15.06395144,546.2603527188576,548.1925291188736,1 45360U 20019A   25249.29463738 -.00000926  00000+0 -43272-4 0  9994,2 45360  53.0543 244.3993 0001395  91.3235 268.7914 15.06395144302342
STARLINK-1301,45361,53.054,0.000117,15.06400822,546.3987731412935,548.019304114332,1 45361U 20019B   25249.28266357  .00002249  00000+0  16985-3 0  9990,2 45361  53.0540 254.4550 0001170  75.5298 284.5821 15.06400822302214
STARLINK-1306,45362,53.0527,0.0007181,15.5205701,405.845974357494,415.59613229368097,1 45362U 20019C   25249.30777560  .00150400  00000+0  24113-2 0  9991,2 45362  53.0527 262.8248 0007181  11.9586 348.1592 15.52057010302095
STARLINK-1262,45366,53.0545,0.0001162,15.06398505,546.411413866892,548.0208659366044,1 45366U 20019G   25249.24764602 -.00000562  00000+0 -18877-4 0  9998,2 45366  53.0545 274.6109 0001162  89.5037 270.6085 15.06398505301935
STARLINK-1273,45367,53.0532,0.0001245,15.06393654,546.3687992656223,548.093215899511,1 45367U 20019H   25249.26976400  .00000185  00000+0  31343-4 0  9994,2 45367  53.0532 274.5165 0001245  86.8652 273.2479 15.06393654301934
STARLINK-1276,45368,53.0545,0.0001269,15.06398499,546.337330975126,548.0949856067,1 45368U 20019J   25249.24027143 -.00000255  00000+0  17454-5 0  9991,2 45368  53.0545 274.6462 0001269  86.0770 274.0364 15.06398499301933
STARLINK-1277,45369,53.0533,0.0001313,15.06389032,546.3358708031792,548.1544761619361,1 45369U 20019K   25249.23299501  .00004906  00000+0  34812-3 0  9991,2 45369  53.0533 275.3088 0001313  74.9676 285.1459 15.06389032301924
STARLINK-1281,45370,53.0549,0.0001441,15.063966,546.2240342393907,548.2199226969842,1 45370U 20019L   25249.29556294 -.00000549  00000+0 -17937-4 0  9995,2 45370  53.0549 274.3993 0001441  93.7404 266.3749 15.06396600301941
STARLINK-1300,45374,53.0542,0.0001247,15.06400964,546.3450128219483,548.0721940154399,1 45374U 20019Q   25249.25133297 -.00000606  00000+0 -21823-4 0  9992,2 45374  53.0542 274.5942 0001247  91.9538 268.1593 15.06400964301931
STARLINK-1302,45375,53.0544,9.75e-05,15.06392809,546.5583737720108,547.9088210385053,1 45375U 20019R   25249.26608132 -.00000692  00000+0 -27606-4 0  9999,2 45375  53.0544 274.5306 0000975  93.5747 266.5353 15.06392809301939
STARLINK-1304,45376,53.0541,0.0001152,15.06393007,546.4351879361002,548.0307931819243,1 45376U 20019S   25249.28452367  .00002758  00000+0  20403-3 0  9999,2 45376  53.0541 274.4498 0001152  83.6318 276.4803 15.06393007301931
STARLINK-1305,45377,53.0532,0.0001494,15.06400339,546.1758720329663,548.2451658716282,1 45377U 20019T   25249.24395094 -.00003038  00000+0 -18511-3 0  9990,2 45377  53.0532 274.6279 0001494  77.0270 283.0886 15.06400339301936
STARLINK-1319,45379,53.0553,0.0001416,15.06373982,546.3106598613849,548.2719411560893,1 45379U 20019V   25249.23659154  .00002161  00000+0  16400-3 0  9990,2 45379  53.0553 274.6645 0001416  90.9719 269.1432 15.06373982301939
STARLINK-1258,45381,53.0445,0.0008783,15.90814442,294.1371591899533,305.867979157164,1 45381U 20019X   25249.25002315  .00321607  49595-4  10129-2 0  9993,2 45381  53.0445 208.9901 0008783  80.3776 267.6417 15.90814442  6007
STARLINK-1266,45383,53.0543,0.0001381,15.06398475,546.259840566262,548.1726231288985,1 45383U 20019Z   25249.30477195 -.00000934  00000+0 -43794-4 0  9991,2 45383  53.0543 254.3579 0001381  90.0207 270.0940 15.06398475302219
STARLINK-1267,45384,53.0535,0.0001433,15.06406477,546.1993073335598,548.1841065409681,1 45384U 20019AA  25249.29011180  .00001109  00000+0  93292-4 0  9999,2 45384  53.0535 255.0797 0001433  88.5268 271.5885 15.06406477302203
STARLINK-1272,45386,53.0539,0.0001208,15.06404176,546.3621785695959,548.0353396890014,1 45386U 20019AC  25249.29739971 -.00000289  00000+0 -50244-6 0  9998,2 45386  53.0539 254.3905 0001208  86.0978 274.0150 15.06404176302211
STARLINK-1274,45387,53.0418,0.0007056,15.23354625,490.8804239002393,500.5808258924935,1 45387U 20019AD  25249.25023999  .00067949  00000+0  28092-2 0  9997,2 45387  53.0418 247.5807 0007056   8.8247 351.2872 15.23354625302302
STARLINK-1280,45388,53.0533,0.0001411,15.06407197,546.212336688468,548.1666638268416,1 45388U 20019AE  25249.28818942  .00002996  00000+0  21989-3 0  9991,2 45388  53.0533 274.4336 0001411  91.0090 269.1060 15.06407197301923
STARLINK-1283,45389,53.0541,0.0001224,15.06417032,546.3117015289699,548.0070140773605,1 45389U 20019AF  25249.26791600 -.00005100  00000+0 -32356-3 0  9993,2 45389  53.0541 254.5233 0001224  86.5679 273.5450 15.06417032302216
STARLINK-1284,45390,53.0548,0.0001218,15.06397381,546.3760763756727,548.0630932397316,1 45390U 20019AG  25249.30846003 -.00000204  00000+0  51901-5 0  9996,2 45390  53.0548 254.3391 0001218  84.5526 275.5602 15.06397381302215
STARLINK-1292,45394,53.0513,0.0003308,15.67615658,363.495756933281,367.9574971089178,1 45394U 20019AL  25249.25002315  .00194987  00000+0  17177-2 0  9999,2 45394  53.0513 233.6355 0003308  70.2986 145.9044 15.67615658  5739
STARLINK-1297,45395,53.0546,0.0001116,15.0640106,546.4354406563452,547.9811777293571,1 45395U 20019AM  25249.27897242  .00001931  00000+0  14846-3 0  9990,2 45395  53.0546 254.4713 0001116  87.6223 272.4894 15.06401060301399
STARLINK-1307,45397,53.0545,0.0001208,15.06389694,546.4065586025645,548.0797304454818,1 45397U 20019AP  25249.27161094 -.00000382  00000+0 -67533-5 0  9995,2 45397  53.0545 254.5030 0001208  83.2009 276.9118 15.06389694302037
STARLINK-1312,45398,53.0511,0.0012101,15.65068314,364.8726944436785,381.21189857709214,1 45398U 20019AQ  25249.25002315  .00196009  00000+0  19067-2 0  9990,2 45398  53.0511 232.8038 0012101  17.6544 185.2078 15.65068314  5942
